[{"OBJECT_NAME":"ONEWEB-0388","OBJECT_ID":"2021-090AM","EPOCH":"2026-03-30T22:29:55.926240","MEAN_MOTION":13.19725858,"ECCENTRICITY":0.0001608,"INCLINATION":87.9197,"RA_OF_ASC_NODE":320.5711,"ARG_OF_PERICENTER":86.1951,"MEAN_ANOMALY":273.9366,"EPHEMERIS_TYPE":0,"CLASSIFICATION_TYPE":"U","NORAD_CAT_ID":49314,"ELEMENT_SET_NO":999,"REV_AT_EPOCH":21609,"BSTAR":9.5733e-07,"MEAN_MOTION_DOT":1.3e-07,"MEAN_MOTION_DDOT":0.0},{"OBJECT_NAME":"ONEWEB-0389","OBJECT_ID":"2021-132A","EPOCH":"2026-03-30T19:58:54.808320","MEAN_MOTION":13.17650949,"ECCENTRICITY":0.0001477,"INCLINATION":87.918,"RA_OF_ASC_NODE":21.4287,"ARG_OF_PERICENTER":77.8393,"MEAN_ANOMALY":282.2904,"EPHEMERIS_TYPE":0,"CLASSIFICATION_TYPE":"U","NORAD_CAT_ID":50469,"ELEMENT_SET_NO":999,"REV_AT_EPOCH":20776,"BSTAR":-0.00039748,"MEAN_MOTION_DOT":-1.41e-06,"MEAN_MOTION_DDOT":0.0},{"OBJECT_NAME":"ONEWEB-0390","OBJECT_ID":"2021-132B","EPOCH":"2026-03-30T20:01:21.963936","MEAN_MOTION":13.17649327,"ECCENTRICITY":0.0001904,"INCLINATION":87.918,"RA_OF_ASC_NODE":21.4288,"ARG_OF_PERICENTER":71.6442,"MEAN_ANOMALY":288.4897,"EPHEMERIS_TYPE":0,"CLASSIFICATION_TYPE":"U","NORAD_CAT_ID":50470,"ELEMENT_SET_NO":999,"REV_AT_EPOCH":20776,"BSTAR":2.5284e-05,"MEAN_MOTION_DOT":2.3e-07,"MEAN_MOTION_DDOT":0.0},{"OBJECT_NAME":"ONEWEB-0391","OBJECT_ID":"2021-132C","EPOCH":"2026-03-30T20:03:46.395360","MEAN_MOTION":13.17650409,"ECCENTRICITY":0.0001214,"INCLINATION":87.918,"RA_OF_ASC_NODE":21.4376,"ARG_OF_PERICENTER":57.2283,"MEAN_ANOMALY":302.8966,"EPHEMERIS_TYPE":0,"CLASSIFICATION_TYPE":"U","NORAD_CAT_ID":50471,"ELEMENT_SET_NO":999,"REV_AT_EPOCH":20776,"BSTAR":-0.00046184,"MEAN_MOTION_DOT":-1.66e-06,"MEAN_MOTION_DDOT":0.0},{"OBJECT_NAME":"ONEWEB-0392","OBJECT_ID":"2021-132D","EPOCH":"2026-03-30T20:47:31.245504","MEAN_MOTION":13.17651012,"ECCENTRICITY":0.0001464,"INCLINATION":87.9188,"RA_OF_ASC_NODE":21.394,"ARG_OF_PERICENTER":75.0537,"MEAN_ANOMALY":285.0757,"EPHEMERIS_TYPE":0,"CLASSIFICATION_TYPE":"U","NORAD_CAT_ID":50472,"ELEMENT_SET_NO":999,"REV_AT_EPOCH":20780,"BSTAR":-6.7497e-05,"MEAN_MOTION_DOT":-1.3e-07,"MEAN_MOTION_DDOT":0.0},{"OBJECT_NAME":"ONEWEB-0393","OBJECT_ID":"2021-132E","EPOCH":"2026-03-30T20:12:17.785728","MEAN_MOTION":13.17647431,"ECCENTRICITY":0.0001667,"INCLINATION":87.9181,"RA_OF_ASC_NODE":21.4221,"ARG_OF_PERICENTER":77.2041,"MEAN_ANOMALY":282.9277,"EPHEMERIS_TYPE":0,"CLASSIFICATION_TYPE":"U","NORAD_CAT_ID":50473,"ELEMENT_SET_NO":999,"REV_AT_EPOCH":20779,"BSTAR":5.8497e-05,"MEAN_MOTION_DOT":3.6e-07,"MEAN_MOTION_DDOT":0.0},{"OBJECT_NAME":"ONEWEB-0394","OBJECT_ID":"2021-132F","EPOCH":"2026-03-30T19:02:20.421024","MEAN_MOTION":13.18688066,"ECCENTRICITY":0.0001574,"INCLINATION":87.9243,"RA_OF_ASC_NODE":351.0203,"ARG_OF_PERICENTER":80.8792,"MEAN_ANOMALY":279.2518,"EPHEMERIS_TYPE":0,"CLASSIFICATION_TYPE":"U","NORAD_CAT_ID":50474,"ELEMENT_SET_NO":999,"REV_AT_EPOCH":21126,"BSTAR":6.139400000000001e-06,"MEAN_MOTION_DOT":1.5e-07,"MEAN_MOTION_DDOT":0.0},{"OBJECT_NAME":"ONEWEB-0395","OBJECT_ID":"2021-132G","EPOCH":"2026-03-30T21:16:39.038016","MEAN_MOTION":13.11418956,"ECCENTRICITY":0.0001757,"INCLINATION":87.8895,"RA_OF_ASC_NODE":36.6351,"ARG_OF_PERICENTER":73.5776,"MEAN_ANOMALY":286.5545,"EPHEMERIS_TYPE":0,"CLASSIFICATION_TYPE":"U","NORAD_CAT_ID":50475,"ELEMENT_SET_NO":999,"REV_AT_EPOCH":20545,"BSTAR":-0.00099237,"MEAN_MOTION_DOT":-3.39e-06,"MEAN_MOTION_DDOT":0.0},{"OBJECT_NAME":"ONEWEB-0396","OBJECT_ID":"2021-132H","EPOCH":"2026-03-30T18:52:50.416896","MEAN_MOTION":13.18687793,"ECCENTRICITY":0.0001615,"INCLINATION":87.9245,"RA_OF_ASC_NODE":351.0337,"ARG_OF_PERICENTER":79.2078,"MEAN_ANOMALY":280.9236,"EPHEMERIS_TYPE":0,"CLASSIFICATION_TYPE":"U","NORAD_CAT_ID":50476,"ELEMENT_SET_NO":999,"REV_AT_EPOCH":21130,"BSTAR":-6.0657000000000006e-05,"MEAN_MOTION_DOT":-1.1e-07,"MEAN_MOTION_DDOT":0.0},{"OBJECT_NAME":"ONEWEB-0397","OBJECT_ID":"2021-132J","EPOCH":"2026-03-30T17:24:57.327264","MEAN_MOTION":13.18688825,"ECCENTRICITY":0.0001638,"INCLINATION":87.9247,"RA_OF_ASC_NODE":351.046,"ARG_OF_PERICENTER":85.5893,"MEAN_ANOMALY":274.5426,"EPHEMERIS_TYPE":0,"CLASSIFICATION_TYPE":"U","NORAD_CAT_ID":50477,"ELEMENT_SET_NO":999,"REV_AT_EPOCH":21127,"BSTAR":0.00014152999999999998,"MEAN_MOTION_DOT":6.9e-07,"MEAN_MOTION_DDOT":0.0},{"OBJECT_NAME":"ONEWEB-0398","OBJECT_ID":"2021-132K","EPOCH":"2026-03-30T20:30:16.996032","MEAN_MOTION":13.11403435,"ECCENTRICITY":0.0002012,"INCLINATION":87.8906,"RA_OF_ASC_NODE":36.6244,"ARG_OF_PERICENTER":70.9364,"MEAN_ANOMALY":289.1982,"EPHEMERIS_TYPE":0,"CLASSIFICATION_TYPE":"U","NORAD_CAT_ID":50478,"ELEMENT_SET_NO":999,"REV_AT_EPOCH":20534,"BSTAR":0.0082224,"MEAN_MOTION_DOT":2.927e-05,"MEAN_MOTION_DDOT":0.0},{"OBJECT_NAME":"ONEWEB-0399","OBJECT_ID":"2021-132L","EPOCH":"2026-03-30T22:00:35.623008","MEAN_MOTION":13.11417218,"ECCENTRICITY":0.0001357,"INCLINATION":87.8907,"RA_OF_ASC_NODE":36.6213,"ARG_OF_PERICENTER":86.4373,"MEAN_ANOMALY":273.691,"EPHEMERIS_TYPE":0,"CLASSIFICATION_TYPE":"U","NORAD_CAT_ID":50479,"ELEMENT_SET_NO":999,"REV_AT_EPOCH":20534,"BSTAR":0.0013531,"MEAN_MOTION_DOT":4.92e-06,"MEAN_MOTION_DDOT":0.0},{"OBJECT_NAME":"ONEWEB-0400","OBJECT_ID":"2021-132M","EPOCH":"2026-03-30T18:43:19.937568","MEAN_MOTION":13.18688548,"ECCENTRICITY":0.0001841,"INCLINATION":87.9246,"RA_OF_ASC_NODE":351.025,"ARG_OF_PERICENTER":74.0211,"MEAN_ANOMALY":286.1124,"EPHEMERIS_TYPE":0,"CLASSIFICATION_TYPE":"U","NORAD_CAT_ID":50480,"ELEMENT_SET_NO":999,"REV_AT_EPOCH":21127,"BSTAR":-1.2756000000000001e-05,"MEAN_MOTION_DOT":8e-08,"MEAN_MOTION_DDOT":0.0},{"OBJECT_NAME":"ONEWEB-0401","OBJECT_ID":"2021-132N","EPOCH":"2026-03-30T23:26:00.662784","MEAN_MOTION":13.18686171,"ECCENTRICITY":0.0001818,"INCLINATION":87.9247,"RA_OF_ASC_NODE":350.9818,"ARG_OF_PERICENTER":85.4044,"MEAN_ANOMALY":274.7296,"EPHEMERIS_TYPE":0,"CLASSIFICATION_TYPE":"U","NORAD_CAT_ID":50481,"ELEMENT_SET_NO":999,"REV_AT_EPOCH":21130,"BSTAR":-6.6123e-05,"MEAN_MOTION_DOT":-1.3e-07,"MEAN_MOTION_DDOT":0.0},{"OBJECT_NAME":"ONEWEB-0402","OBJECT_ID":"2021-132P","EPOCH":"2026-03-30T18:55:13.311264","MEAN_MOTION":13.18686392,"ECCENTRICITY":0.0001872,"INCLINATION":87.9244,"RA_OF_ASC_NODE":351.0106,"ARG_OF_PERICENTER":94.9627,"MEAN_ANOMALY":265.1719,"EPHEMERIS_TYPE":0,"CLASSIFICATION_TYPE":"U","NORAD_CAT_ID":50482,"ELEMENT_SET_NO":999,"REV_AT_EPOCH":21130,"BSTAR":-4.1626000000000004e-05,"MEAN_MOTION_DOT":-4e-08,"MEAN_MOTION_DDOT":0.0},{"OBJECT_NAME":"ONEWEB-0403","OBJECT_ID":"2021-132Q","EPOCH":"2026-03-30T23:09:22.301280","MEAN_MOTION":13.18688372,"ECCENTRICITY":0.0001656,"INCLINATION":87.9246,"RA_OF_ASC_NODE":350.9989,"ARG_OF_PERICENTER":76.91,"MEAN_ANOMALY":283.2217,"EPHEMERIS_TYPE":0,"CLASSIFICATION_TYPE":"U","NORAD_CAT_ID":50483,"ELEMENT_SET_NO":999,"REV_AT_EPOCH":21128,"BSTAR":0.00013929,"MEAN_MOTION_DOT":6.8e-07,"MEAN_MOTION_DDOT":0.0}]