ONEWEB-0388             
1 49314U 21090AM  26089.93745285  .00000013  00000+0  95733-6 0  9997
2 49314  87.9197 320.5711 0001608  86.1951 273.9366 13.19725858216091
ONEWEB-0389             
1 50469U 21132A   26089.83257880 -.00000141  00000+0 -39748-3 0  9990
2 50469  87.9180  21.4287 0001477  77.8393 282.2904 13.17650949207763
ONEWEB-0390             
1 50470U 21132B   26089.83428199  .00000023  00000+0  25284-4 0  9993
2 50470  87.9180  21.4288 0001904  71.6442 288.4897 13.17649327207765
ONEWEB-0391             
1 50471U 21132C   26089.83595365 -.00000166  00000+0 -46184-3 0  9995
2 50471  87.9180  21.4376 0001214  57.2283 302.8966 13.17650409207762
ONEWEB-0392             
1 50472U 21132D   26089.86633386 -.00000013  00000+0 -67497-4 0  9997
2 50472  87.9188  21.3940 0001464  75.0537 285.0757 13.17651012207800
ONEWEB-0393             
1 50473U 21132E   26089.84187252  .00000036  00000+0  58497-4 0  9995
2 50473  87.9181  21.4221 0001667  77.2041 282.9277 13.17647431207797
ONEWEB-0394             
1 50474U 21132F   26089.79329191  .00000015  00000+0  61394-5 0  9998
2 50474  87.9243 351.0203 0001574  80.8792 279.2518 13.18688066211263
ONEWEB-0395             
1 50475U 21132G   26089.88656294 -.00000339  00000+0 -99237-3 0  9992
2 50475  87.8895  36.6351 0001757  73.5776 286.5545 13.11418956205457
ONEWEB-0396             
1 50476U 21132H   26089.78669464 -.00000011  00000+0 -60657-4 0  9997
2 50476  87.9245 351.0337 0001615  79.2078 280.9236 13.18687793211307
ONEWEB-0397             
1 50477U 21132J   26089.72566351  .00000069  00000+0  14153-3 0  9993
2 50477  87.9247 351.0460 0001638  85.5893 274.5426 13.18688825211270
ONEWEB-0398             
1 50478U 21132K   26089.85436338  .00002927  00000+0  82224-2 0  9997
2 50478  87.8906  36.6244 0002012  70.9364 289.1982 13.11403435205341
ONEWEB-0399             
1 50479U 21132L   26089.91707897  .00000492  00000+0  13531-2 0  9996
2 50479  87.8907  36.6213 0001357  86.4373 273.6910 13.11417218205345
ONEWEB-0400             
1 50480U 21132M   26089.78009187  .00000008  00000+0 -12756-4 0  9994
2 50480  87.9246 351.0250 0001841  74.0211 286.1124 13.18688548211279
ONEWEB-0401             
1 50481U 21132N   26089.97639656 -.00000013  00000+0 -66123-4 0  9990
2 50481  87.9247 350.9818 0001818  85.4044 274.7296 13.18686171211300
ONEWEB-0402             
1 50482U 21132P   26089.78834851 -.00000004  00000+0 -41626-4 0  9995
2 50482  87.9244 351.0106 0001872  94.9627 265.1719 13.18686392211301
ONEWEB-0403             
1 50483U 21132Q   26089.96484145  .00000068  00000+0  13929-3 0  9995
2 50483  87.9246 350.9989 0001656  76.9100 283.2217 13.18688372211288
